[
  {
    "OBJECT_NAME": "STARLINK-30343",
    "OBJECT_ID": "23131X",
    "EPOCH": "2025-11-10T16:04:57.655200",
    "MEAN_MOTION": 15.02525758,
    "ECCENTRICITY": 0.0001274,
    "INCLINATION": 43.0012,
    "RA_OF_ASC_NODE": 98.237,
    "ARG_OF_PERICENTER": 261.4326,
    "MEAN_ANOMALY": 98.6372,
    "EPHEMERIS_TYPE": 0,
    "CLASSIFICATION_TYPE": "U",
    "NORAD_CAT_ID": 57753,
    "ELEMENT_SET_NO": 999,
    "REV_AT_EPOCH": 12202,
    "BSTAR": 0.0,
    "MEAN_MOTION_DOT": -1.418e-05,
    "MEAN_MOTION_DDOT": 0.0,
    "TLE_LINE1": "1 57753U 23131X   25314.67011175 -.00001418  00000+0 -89976-4 0  9998",
    "TLE_LINE2": "2 57753  43.0012  98.2370 0001274 261.4326  98.6372 15.02525758122028",
    "COMMENT": "Grouped by shell and plane from TLE"
  },
  {
    "OBJECT_NAME": "STARLINK-31044",
    "OBJECT_ID": "23200A",
    "EPOCH": "2025-11-10T15:53:16.927872",
    "MEAN_MOTION": 15.02536031,
    "ECCENTRICITY": 0.0001474,
    "INCLINATION": 43.004,
    "RA_OF_ASC_NODE": 96.6403,
    "ARG_OF_PERICENTER": 268.014,
    "MEAN_ANOMALY": 92.0534,
    "EPHEMERIS_TYPE": 0,
    "CLASSIFICATION_TYPE": "U",
    "NORAD_CAT_ID": 58589,
    "ELEMENT_SET_NO": 999,
    "REV_AT_EPOCH": 10569,
    "BSTAR": 7.965600000000001e-05,
    "MEAN_MOTION_DOT": 8.72e-06,
    "MEAN_MOTION_DDOT": 0.0,
    "TLE_LINE1": "1 58589U 23200A   25314.66200148  .00000872  00000+0  79656-4 0  9997",
    "TLE_LINE2": "2 58589  43.0040  96.6403 0001474 268.0140  92.0534 15.02536031105693",
    "COMMENT": "Grouped by shell and plane from TLE"
  },
  {
    "OBJECT_NAME": "STARLINK-31062",
    "OBJECT_ID": "23200B",
    "EPOCH": "2025-11-11T01:53:44.418048",
    "MEAN_MOTION": 15.02537415,
    "ECCENTRICITY": 0.0001533,
    "INCLINATION": 43.0033,
    "RA_OF_ASC_NODE": 96.333,
    "ARG_OF_PERICENTER": 269.2995,
    "MEAN_ANOMALY": 90.7671,
    "EPHEMERIS_TYPE": 0,
    "CLASSIFICATION_TYPE": "U",
    "NORAD_CAT_ID": 58590,
    "ELEMENT_SET_NO": 999,
    "REV_AT_EPOCH": 10573,
    "BSTAR": 7.2852e-05,
    "MEAN_MOTION_DOT": 7.81e-06,
    "MEAN_MOTION_DDOT": 0.0,
    "TLE_LINE1": "1 58590U 23200B   25315.07898632  .00000781  00000+0  72852-4 0  9996",
    "TLE_LINE2": "2 58590  43.0033  96.3330 0001533 269.2995  90.7671 15.02537415105739",
    "COMMENT": "Grouped by shell and plane from TLE"
  },
  {
    "OBJECT_NAME": "STARLINK-31096",
    "OBJECT_ID": "23200D",
    "EPOCH": "2025-11-11T02:33:32.224608",
    "MEAN_MOTION": 15.0255501,
    "ECCENTRICITY": 0.0001346,
    "INCLINATION": 43.0033,
    "RA_OF_ASC_NODE": 95.6861,
    "ARG_OF_PERICENTER": 274.9097,
    "MEAN_ANOMALY": 85.1591,
    "EPHEMERIS_TYPE": 0,
    "CLASSIFICATION_TYPE": "U",
    "NORAD_CAT_ID": 58592,
    "ELEMENT_SET_NO": 999,
    "REV_AT_EPOCH": 10574,
    "BSTAR": 0.0,
    "MEAN_MOTION_DOT": -4.155e-05,
    "MEAN_MOTION_DDOT": 0.0,
    "TLE_LINE1": "1 58592U 23200D   25315.10662297 -.00004155  00000+0 -29252-3 0  9994",
    "TLE_LINE2": "2 58592  43.0033  95.6861 0001346 274.9097  85.1591 15.02555010105741",
    "COMMENT": "Grouped by shell and plane from TLE"
  },
  {
    "OBJECT_NAME": "STARLINK-31094",
    "OBJECT_ID": "23200E",
    "EPOCH": "2025-11-11T02:49:09.838272",
    "MEAN_MOTION": 15.02535527,
    "ECCENTRICITY": 0.0001335,
    "INCLINATION": 43.0036,
    "RA_OF_ASC_NODE": 94.9142,
    "ARG_OF_PERICENTER": 267.7386,
    "MEAN_ANOMALY": 92.3304,
    "EPHEMERIS_TYPE": 0,
    "CLASSIFICATION_TYPE": "U",
    "NORAD_CAT_ID": 58593,
    "ELEMENT_SET_NO": 999,
    "REV_AT_EPOCH": 10575,
    "BSTAR": 5.6160000000000004e-05,
    "MEAN_MOTION_DOT": 5.55e-06,
    "MEAN_MOTION_DDOT": 0.0,
    "TLE_LINE1": "1 58593U 23200E   25315.11747498  .00000555  00000+0  56160-4 0  9990",
    "TLE_LINE2": "2 58593  43.0036  94.9142 0001335 267.7386  92.3304 15.02535527105752",
    "COMMENT": "Grouped by shell and plane from TLE"
  },
  {
    "OBJECT_NAME": "STARLINK-31075",
    "OBJECT_ID": "23200F",
    "EPOCH": "2025-11-10T16:55:36.892704",
    "MEAN_MOTION": 15.02535175,
    "ECCENTRICITY": 0.0001335,
    "INCLINATION": 43.0034,
    "RA_OF_ASC_NODE": 96.9756,
    "ARG_OF_PERICENTER": 280.8111,
    "MEAN_ANOMALY": 79.2581,
    "EPHEMERIS_TYPE": 0,
    "CLASSIFICATION_TYPE": "U",
    "NORAD_CAT_ID": 58594,
    "ELEMENT_SET_NO": 999,
    "REV_AT_EPOCH": 10569,
    "BSTAR": 0.00015204999999999998,
    "MEAN_MOTION_DOT": 1.851e-05,
    "MEAN_MOTION_DDOT": 0.0,
    "TLE_LINE1": "1 58594U 23200F   25314.70528811  .00001851  00000+0  15205-3 0  9995",
    "TLE_LINE2": "2 58594  43.0034  96.9756 0001335 280.8111  79.2581 15.02535175105699",
    "COMMENT": "Grouped by shell and plane from TLE"
  },
  {
    "OBJECT_NAME": "STARLINK-30857",
    "OBJECT_ID": "23200G",
    "EPOCH": "2025-11-11T02:34:46.834464",
    "MEAN_MOTION": 15.02552718,
    "ECCENTRICITY": 0.0001301,
    "INCLINATION": 43.0038,
    "RA_OF_ASC_NODE": 94.8399,
    "ARG_OF_PERICENTER": 267.7242,
    "MEAN_ANOMALY": 92.3452,
    "EPHEMERIS_TYPE": 0,
    "CLASSIFICATION_TYPE": "U",
    "NORAD_CAT_ID": 58595,
    "ELEMENT_SET_NO": 999,
    "REV_AT_EPOCH": 10575,
    "BSTAR": 0.00016887,
    "MEAN_MOTION_DOT": 2.079e-05,
    "MEAN_MOTION_DDOT": 0.0,
    "TLE_LINE1": "1 58595U 23200G   25315.10748651  .00002079  00000+0  16887-3 0  9997",
    "TLE_LINE2": "2 58595  43.0038  94.8399 0001301 267.7242  92.3452 15.02552718105758",
    "COMMENT": "Grouped by shell and plane from TLE"
  },
  {
    "OBJECT_NAME": "STARLINK-31087",
    "OBJECT_ID": "23200J",
    "EPOCH": "2025-11-11T02:25:11.773344",
    "MEAN_MOTION": 15.02533211,
    "ECCENTRICITY": 0.0001316,
    "INCLINATION": 43.0037,
    "RA_OF_ASC_NODE": 94.7881,
    "ARG_OF_PERICENTER": 273.4906,
    "MEAN_ANOMALY": 86.5785,
    "EPHEMERIS_TYPE": 0,
    "CLASSIFICATION_TYPE": "U",
    "NORAD_CAT_ID": 58597,
    "ELEMENT_SET_NO": 999,
    "REV_AT_EPOCH": 10564,
    "BSTAR": 6.504e-05,
    "MEAN_MOTION_DOT": 6.75e-06,
    "MEAN_MOTION_DDOT": 0.0,
    "TLE_LINE1": "1 58597U 23200J   25315.10083071  .00000675  00000+0  65040-4 0  9993",
    "TLE_LINE2": "2 58597  43.0037  94.7881 0001316 273.4906  86.5785 15.02533211105640",
    "COMMENT": "Grouped by shell and plane from TLE"
  },
  {
    "OBJECT_NAME": "STARLINK-31079",
    "OBJECT_ID": "23200K",
    "EPOCH": "2025-11-10T15:38:53.611296",
    "MEAN_MOTION": 15.14780608,
    "ECCENTRICITY": 0.001353,
    "INCLINATION": 42.9989,
    "RA_OF_ASC_NODE": 90.663,
    "ARG_OF_PERICENTER": 304.2001,
    "MEAN_ANOMALY": 55.7563,
    "EPHEMERIS_TYPE": 0,
    "CLASSIFICATION_TYPE": "U",
    "NORAD_CAT_ID": 58598,
    "ELEMENT_SET_NO": 999,
    "REV_AT_EPOCH": 10576,
    "BSTAR": 0.0042192,
    "MEAN_MOTION_DOT": 0.00080547,
    "MEAN_MOTION_DDOT": 0.0,
    "TLE_LINE1": "1 58598U 23200K   25314.65200939  .00080547  00000+0  42192-2 0  9994",
    "TLE_LINE2": "2 58598  42.9989  90.6630 0013530 304.2001  55.7563 15.14780608105764",
    "COMMENT": "Grouped by shell and plane from TLE"
  },
  {
    "OBJECT_NAME": "STARLINK-31052",
    "OBJECT_ID": "23200M",
    "EPOCH": "2025-11-11T02:15:35.536320",
    "MEAN_MOTION": 15.02542521,
    "ECCENTRICITY": 0.0001415,
    "INCLINATION": 43.0031,
    "RA_OF_ASC_NODE": 94.7376,
    "ARG_OF_PERICENTER": 270.0843,
    "MEAN_ANOMALY": 89.9837,
    "EPHEMERIS_TYPE": 0,
    "CLASSIFICATION_TYPE": "U",
    "NORAD_CAT_ID": 58600,
    "ELEMENT_SET_NO": 999,
    "REV_AT_EPOCH": 10575,
    "BSTAR": 0.00010496999999999999,
    "MEAN_MOTION_DOT": 1.215e-05,
    "MEAN_MOTION_DDOT": 0.0,
    "TLE_LINE1": "1 58600U 23200M   25315.09416130  .00001215  00000+0  10497-3 0  9998",
    "TLE_LINE2": "2 58600  43.0031  94.7376 0001415 270.0843  89.9837 15.02542521105752",
    "COMMENT": "Grouped by shell and plane from TLE"
  },
  {
    "OBJECT_NAME": "STARLINK-31074",
    "OBJECT_ID": "23200N",
    "EPOCH": "2025-11-11T02:10:48.346176",
    "MEAN_MOTION": 15.02537679,
    "ECCENTRICITY": 0.0001249,
    "INCLINATION": 43.0047,
    "RA_OF_ASC_NODE": 94.7141,
    "ARG_OF_PERICENTER": 264.7348,
    "MEAN_ANOMALY": 95.3351,
    "EPHEMERIS_TYPE": 0,
    "CLASSIFICATION_TYPE": "U",
    "NORAD_CAT_ID": 58601,
    "ELEMENT_SET_NO": 999,
    "REV_AT_EPOCH": 10575,
    "BSTAR": 8.1926e-05,
    "MEAN_MOTION_DOT": 9.03e-06,
    "MEAN_MOTION_DDOT": 0.0,
    "TLE_LINE1": "1 58601U 23200N   25315.09083734  .00000903  00000+0  81926-4 0  9998",
    "TLE_LINE2": "2 58601  43.0047  94.7141 0001249 264.7348  95.3351 15.02537679105755",
    "COMMENT": "Grouped by shell and plane from TLE"
  },
  {
    "OBJECT_NAME": "STARLINK-31080",
    "OBJECT_ID": "23200Q",
    "EPOCH": "2025-11-11T02:06:00.653184",
    "MEAN_MOTION": 15.0253421,
    "ECCENTRICITY": 0.0001301,
    "INCLINATION": 43.003,
    "RA_OF_ASC_NODE": 94.6856,
    "ARG_OF_PERICENTER": 268.7235,
    "MEAN_ANOMALY": 91.3458,
    "EPHEMERIS_TYPE": 0,
    "CLASSIFICATION_TYPE": "U",
    "NORAD_CAT_ID": 58603,
    "ELEMENT_SET_NO": 999,
    "REV_AT_EPOCH": 10556,
    "BSTAR": 0.00013298,
    "MEAN_MOTION_DOT": 1.593e-05,
    "MEAN_MOTION_DDOT": 0.0,
    "TLE_LINE1": "1 58603U 23200Q   25315.08750756  .00001593  00000+0  13298-3 0  9996",
    "TLE_LINE2": "2 58603  43.0030  94.6856 0001301 268.7235  91.3458 15.02534210105560",
    "COMMENT": "Grouped by shell and plane from TLE"
  },
  {
    "OBJECT_NAME": "STARLINK-31088",
    "OBJECT_ID": "23200R",
    "EPOCH": "2025-11-11T02:01:12.735552",
    "MEAN_MOTION": 15.02538803,
    "ECCENTRICITY": 0.000115,
    "INCLINATION": 43.0047,
    "RA_OF_ASC_NODE": 94.6482,
    "ARG_OF_PERICENTER": 273.2167,
    "MEAN_ANOMALY": 86.8544,
    "EPHEMERIS_TYPE": 0,
    "CLASSIFICATION_TYPE": "U",
    "NORAD_CAT_ID": 58604,
    "ELEMENT_SET_NO": 999,
    "REV_AT_EPOCH": 10575,
    "BSTAR": 0.00011724999999999999,
    "MEAN_MOTION_DOT": 1.381e-05,
    "MEAN_MOTION_DDOT": 0.0,
    "TLE_LINE1": "1 58604U 23200R   25315.08417518  .00001381  00000+0  11725-3 0  9991",
    "TLE_LINE2": "2 58604  43.0047  94.6482 0001150 273.2167  86.8544 15.02538803105759",
    "COMMENT": "Grouped by shell and plane from TLE"
  }
]